start=new Date('2022-01-07T00:00:00.000Z').valueOf();
sats=[{"OBJECT_ID":"2021-104A","EPHEMERIS_TYPE":"0","ELEMENT_SET_NO":"999","SITE":"AFETR","CENTER_NAME":"EARTH","DECAY_DATE":null,"MEAN_ELEMENT_THEORY":"SGP4","INCLINATION":"53.2175","COUNTRY_CODE":"US","MEAN_MOTION":"15.36940490","REF_FRAME":"TEME","SEMIMAJOR_AXIS":"6833.300","OBJECT_TYPE":"PAYLOAD","ECCENTRICITY":"0.00013460","CLASSIFICATION_TYPE":"U","PERIOD":"93.693","TIME_SYSTEM":"UTC","RCS_SIZE":"LARGE","REV_AT_EPOCH":"367","NORAD_CAT_ID":"49408","ARG_OF_PERICENTER":"56.0047","BSTAR":"-0.01950600000000","RA_OF_ASC_NODE":"227.1885","EPOCH":"2022-01-06T22:00:00.999936","TLE_LINE2":"2 49408  53.2175 227.1885 0001346  56.0047 355.2498 15.36940490  3672","TLE_LINE1":"1 49408U 21104A   22006.91667824 -.00664478  00000-0 -19506-1 0  9995","LAUNCH_DATE":"2021-11-13","GP_ID":"193356619","MEAN_MOTION_DOT":"-0.00664478","OBJECT_NAME":"STARLINK-3151","PERIAPSIS":"454.245","MEAN_ANOMALY":"355.2498","MEAN_MOTION_DDOT":"0.0000000000000","APOAPSIS":"456.085","FILE":"3265870"},{"LAUNCH_DATE":"2021-11-13","TLE_LINE1":"1 49409U 21104B   22006.91667824 -.00660406  00000-0 -18319-1 0  9994","TLE_LINE2":"2 49409  53.2173 227.1930 0001662  49.7839 153.3978 15.38657401  3681","FILE":"3265870","APOAPSIS":"451.215","MEAN_MOTION_DDOT":"0.0000000000000","PERIAPSIS":"448.946","MEAN_ANOMALY":"153.3978","OBJECT_NAME":"STARLINK-3075","MEAN_MOTION_DOT":"-0.00660406","GP_ID":"193355868","INCLINATION":"53.2173","MEAN_ELEMENT_THEORY":"SGP4","DECAY_DATE":null,"SITE":"AFETR","CENTER_NAME":"EARTH","ELEMENT_SET_NO":"999","EPHEMERIS_TYPE":"0","OBJECT_ID":"2021-104B","EPOCH":"2022-01-06T22:00:00.999936","RA_OF_ASC_NODE":"227.1930","BSTAR":"-0.01831900000000","ARG_OF_PERICENTER":"49.7839","NORAD_CAT_ID":"49409","REV_AT_EPOCH":"368","RCS_SIZE":"LARGE","TIME_SYSTEM":"UTC","PERIOD":"93.588","CLASSIFICATION_TYPE":"U","ECCENTRICITY":"0.00016620","OBJECT_TYPE":"PAYLOAD","REF_FRAME":"TEME","SEMIMAJOR_AXIS":"6828.216","COUNTRY_CODE":"US","MEAN_MOTION":"15.38657401"},{"LAUNCH_DATE":"2021-11-13","TLE_LINE2":"2 49410  53.2175 227.1899 0001531  45.0311 342.3935 15.36715805  3671","TLE_LINE1":"1 49410U 21104C   22006.91667824 -.00664474  00000-0 -19648-1 0  9991","FILE":"3265870","APOAPSIS":"456.877","MEAN_MOTION_DDOT":"0.0000000000000","GP_ID":"193356118","MEAN_MOTION_DOT":"-0.00664474","PERIAPSIS":"454.785","MEAN_ANOMALY":"342.3935","OBJECT_NAME":"STARLINK-3147","ELEMENT_SET_NO":"999","SITE":"AFETR","CENTER_NAME":"EARTH","EPHEMERIS_TYPE":"0","MEAN_ELEMENT_THEORY":"SGP4","INCLINATION":"53.2175","DECAY_DATE":null,"OBJECT_ID":"2021-104C","REV_AT_EPOCH":"367","RCS_SIZE":"LARGE","RA_OF_ASC_NODE":"227.1899","BSTAR":"-0.01964800000000","EPOCH":"2022-01-06T22:00:00.999936","NORAD_CAT_ID":"49410","ARG_OF_PERICENTER":"45.0311","OBJECT_TYPE":"PAYLOAD","ECCENTRICITY":"0.00015310","MEAN_MOTION":"15.36715805","COUNTRY_CODE":"US","SEMIMAJOR_AXIS":"6833.966","REF_FRAME":"TEME","PERIOD":"93.706","TIME_SYSTEM":"UTC","CLASSIFICATION_TYPE":"U"},{"MEAN_MOTION_DDOT":"0.0000000000000","APOAPSIS":"371.307","FILE":"3265870","MEAN_MOTION_DOT":"-0.00661121","GP_ID":"193356369","OBJECT_NAME":"STARLINK-3162","MEAN_ANOMALY":"234.7808","PERIAPSIS":"369.497","LAUNCH_DATE":"2021-11-13","TLE_LINE2":"2 49411  53.2175 223.9226 0001341  55.7398 234.7808 15.65987503  3707","TLE_LINE1":"1 49411U 21104D   22006.91667824 -.00661121  00000-0 -68751-2 0  9998","RCS_SIZE":"LARGE","REV_AT_EPOCH":"370","ARG_OF_PERICENTER":"55.7398","NORAD_CAT_ID":"49411","EPOCH":"2022-01-06T22:00:00.999936","RA_OF_ASC_NODE":"223.9226","BSTAR":"-0.00687510000000","SEMIMAJOR_AXIS":"6748.537","REF_FRAME":"TEME","COUNTRY_CODE":"US","MEAN_MOTION":"15.65987503","ECCENTRICITY":"0.00013410","OBJECT_TYPE":"PAYLOAD","CLASSIFICATION_TYPE":"U","TIME_SYSTEM":"UTC","PERIOD":"91.955","EPHEMERIS_TYPE":"0","SITE":"AFETR","ELEMENT_SET_NO":"999","CENTER_NAME":"EARTH","DECAY_DATE":null,"INCLINATION":"53.2175","MEAN_ELEMENT_THEORY":"SGP4","OBJECT_ID":"2021-104D"},{"EPOCH":"2022-01-06T22:00:00.999936","BSTAR":"-0.01824800000000","RA_OF_ASC_NODE":"227.1913","ARG_OF_PERICENTER":"58.5058","NORAD_CAT_ID":"49412","REV_AT_EPOCH":"368","RCS_SIZE":"LARGE","TIME_SYSTEM":"UTC","PERIOD":"93.581","CLASSIFICATION_TYPE":"U","ECCENTRICITY":"0.00015320","OBJECT_TYPE":"PAYLOAD","SEMIMAJOR_AXIS":"6827.875","REF_FRAME":"TEME","MEAN_MOTION":"15.38772484","COUNTRY_CODE":"US","INCLINATION":"53.2173","MEAN_ELEMENT_THEORY":"SGP4","DECAY_DATE":null,"CENTER_NAME":"EARTH","SITE":"AFETR","ELEMENT_SET_NO":"999","EPHEMERIS_TYPE":"0","OBJECT_ID":"2021-104E","APOAPSIS":"450.786","FILE":"3265870","MEAN_MOTION_DDOT":"0.0000000000000","PERIAPSIS":"448.694","MEAN_ANOMALY":"155.8283","OBJECT_NAME":"STARLINK-3144","MEAN_MOTION_DOT":"-0.00660329","GP_ID":"193357120","LAUNCH_DATE":"2021-11-13","TLE_LINE1":"1 49412U 21104E   22006.91667824 -.00660329  00000-0 -18248-1 0  9993","TLE_LINE2":"2 49412  53.2173 227.1913 0001532  58.5058 155.8283 15.38772484  3688"},{"EPHEMERIS_TYPE":"0","CENTER_NAME":"EARTH","SITE":"AFETR","ELEMENT_SET_NO":"999","DECAY_DATE":null,"INCLINATION":"53.2175","MEAN_ELEMENT_THEORY":"SGP4","OBJECT_ID":"2021-104F","RCS_SIZE":"LARGE","REV_AT_EPOCH":"370","ARG_OF_PERICENTER":"32.9635","NORAD_CAT_ID":"49413","EPOCH":"2022-01-06T22:00:00.999936","RA_OF_ASC_NODE":"223.9226","BSTAR":"-0.00684910000000","REF_FRAME":"TEME","SEMIMAJOR_AXIS":"6748.206","COUNTRY_CODE":"US","MEAN_MOTION":"15.66102945","ECCENTRICITY":"0.00018250","OBJECT_TYPE":"PAYLOAD","CLASSIFICATION_TYPE":"U","TIME_SYSTEM":"UTC","PERIOD":"91.948","LAUNCH_DATE":"2021-11-13","TLE_LINE2":"2 49413  53.2175 223.9226 0001825  32.9635 260.6151 15.66102945  3706","TLE_LINE1":"1 49413U 21104F   22006.91667824 -.00661750  00000-0 -68491-2 0  9999","MEAN_MOTION_DDOT":"0.0000000000000","FILE":"3265870","APOAPSIS":"371.302","MEAN_MOTION_DOT":"-0.00661750","GP_ID":"193355368","OBJECT_NAME":"STARLINK-3157","PERIAPSIS":"368.839","MEAN_ANOMALY":"260.6151"},{"REV_AT_EPOCH":"367","RCS_SIZE":"LARGE","BSTAR":"-0.01957900000000","RA_OF_ASC_NODE":"227.1897","EPOCH":"2022-01-06T22:00:00.999936","NORAD_CAT_ID":"49414","ARG_OF_PERICENTER":"49.9433","OBJECT_TYPE":"PAYLOAD","ECCENTRICITY":"0.00014410","COUNTRY_CODE":"US","MEAN_MOTION":"15.36831042","SEMIMAJOR_AXIS":"6833.624","REF_FRAME":"TEME","PERIOD":"93.699","TIME_SYSTEM":"UTC","CLASSIFICATION_TYPE":"U","CENTER_NAME":"EARTH","SITE":"AFETR","ELEMENT_SET_NO":"999","EPHEMERIS_TYPE":"0","MEAN_ELEMENT_THEORY":"SGP4","INCLINATION":"53.2175","DECAY_DATE":null,"OBJECT_ID":"2021-104G","APOAPSIS":"456.474","FILE":"3265870","MEAN_MOTION_DDOT":"0.0000000000000","GP_ID":"193355618","MEAN_MOTION_DOT":"-0.00664601","MEAN_ANOMALY":"349.2087","PERIAPSIS":"454.504","OBJECT_NAME":"STARLINK-3146","LAUNCH_DATE":"2021-11-13","TLE_LINE2":"2 49414  53.2175 227.1897 0001441  49.9433 349.2087 15.36831042  3677","TLE_LINE1":"1 49414U 21104G   22006.91667824 -.00664601  00000-0 -19579-1 0  9990"},{"MEAN_MOTION_DDOT":"0.0000000000000","FILE":"3265870","APOAPSIS":"370.995","OBJECT_NAME":"STARLINK-3159","MEAN_ANOMALY":"265.4557","PERIAPSIS":"368.484","GP_ID":"193356870","MEAN_MOTION_DOT":"-0.00661873","LAUNCH_DATE":"2021-11-13","TLE_LINE1":"1 49415U 21104H   22006.91667824 -.00661873  00000-0 -68185-2 0  9997","TLE_LINE2":"2 49415  53.2175 223.9199 0001861  31.1469 265.4557 15.66218174  3708","NORAD_CAT_ID":"49415","ARG_OF_PERICENTER":"31.1469","RA_OF_ASC_NODE":"223.9199","BSTAR":"-0.00681850000000","EPOCH":"2022-01-06T22:00:00.999936","RCS_SIZE":"LARGE","REV_AT_EPOCH":"370","CLASSIFICATION_TYPE":"U","PERIOD":"91.941","TIME_SYSTEM":"UTC","COUNTRY_CODE":"US","MEAN_MOTION":"15.66218174","SEMIMAJOR_AXIS":"6747.875","REF_FRAME":"TEME","OBJECT_TYPE":"PAYLOAD","ECCENTRICITY":"0.00018610","DECAY_DATE":null,"MEAN_ELEMENT_THEORY":"SGP4","INCLINATION":"53.2175","EPHEMERIS_TYPE":"0","SITE":"AFETR","ELEMENT_SET_NO":"999","CENTER_NAME":"EARTH","OBJECT_ID":"2021-104H"},{"LAUNCH_DATE":"2021-11-13","TLE_LINE2":"2 49416  53.2175 227.1884 0001545  45.0105  17.9050 15.37055690  3670","TLE_LINE1":"1 49416U 21104J   22006.91667824 -.00664659  00000-0 -19438-1 0  9999","FILE":"3265870","APOAPSIS":"455.879","MEAN_MOTION_DDOT":"0.0000000000000","GP_ID":"193356620","MEAN_MOTION_DOT":"-0.00664659","PERIAPSIS":"453.768","MEAN_ANOMALY":"17.9050","OBJECT_NAME":"STARLINK-3133","ELEMENT_SET_NO":"999","SITE":"AFETR","CENTER_NAME":"EARTH","EPHEMERIS_TYPE":"0","MEAN_ELEMENT_THEORY":"SGP4","INCLINATION":"53.2175","DECAY_DATE":null,"OBJECT_ID":"2021-104J","REV_AT_EPOCH":"367","RCS_SIZE":"LARGE","RA_OF_ASC_NODE":"227.1884","BSTAR":"-0.01943800000000","EPOCH":"2022-01-06T22:00:00.999936","NORAD_CAT_ID":"49416","ARG_OF_PERICENTER":"45.0105","OBJECT_TYPE":"PAYLOAD","ECCENTRICITY":"0.00015450","COUNTRY_CODE":"US","MEAN_MOTION":"15.37055690","SEMIMAJOR_AXIS":"6832.958","REF_FRAME":"TEME","PERIOD":"93.686","TIME_SYSTEM":"UTC","CLASSIFICATION_TYPE":"U"},{"OBJECT_ID":"2021-104K","DECAY_DATE":null,"MEAN_ELEMENT_THEORY":"SGP4","INCLINATION":"53.2150","EPHEMERIS_TYPE":"0","ELEMENT_SET_NO":"999","SITE":"AFETR","CENTER_NAME":"EARTH","CLASSIFICATION_TYPE":"U","PERIOD":"91.869","TIME_SYSTEM":"UTC","COUNTRY_CODE":"US","MEAN_MOTION":"15.67445984","REF_FRAME":"TEME","SEMIMAJOR_AXIS":"6744.350","OBJECT_TYPE":"PAYLOAD","ECCENTRICITY":"0.00008860","NORAD_CAT_ID":"49417","ARG_OF_PERICENTER":"155.9814","RA_OF_ASC_NODE":"224.4987","BSTAR":"-0.00270260000000","EPOCH":"2022-01-06T19:11:43.972800","RCS_SIZE":"LARGE","REV_AT_EPOCH":"873","TLE_LINE1":"1 49417U 21104K   22006.79981450 -.00288672  00000-0 -27026-2 0  9990","TLE_LINE2":"2 49417  53.2150 224.4987 0000886 155.9814 204.1245 15.67445984  8733","LAUNCH_DATE":"2021-11-13","OBJECT_NAME":"STARLINK-3154","MEAN_ANOMALY":"204.1245","PERIAPSIS":"365.618","GP_ID":"193355869","MEAN_MOTION_DOT":"-0.00288672","MEAN_MOTION_DDOT":"0.0000000000000","APOAPSIS":"366.813","FILE":"3265870"}];
